{
    "links": {
        "self": "http://www.neowsapp.com/rest/v1/neo/3775715?api_key=iIulBulltgU6a56xZRHN4H3l9WmuAYTsLGpBGhQ2"
    },
    "id": "3775715",
    "neo_reference_id": "3775715",
    "name": "(2017 MD1)",
    "designation": "2017 MD1",
    "nasa_jpl_url": "http://ssd.jpl.nasa.gov/sbdb.cgi?sstr=3775715",
    "absolute_magnitude_h": 24.6,
    "estimated_diameter": {
        "kilometers": {
            "estimated_diameter_min": 0.0319561887,
            "estimated_diameter_max": 0.0714562102
        },
        "meters": {
            "estimated_diameter_min": 31.9561886721,
            "estimated_diameter_max": 71.4562101727
        },
        "miles": {
            "estimated_diameter_min": 0.0198566489,
            "estimated_diameter_max": 0.0444008168
        },
        "feet": {
            "estimated_diameter_min": 104.8431420431,
            "estimated_diameter_max": 234.436392583
        }
    },
    "is_potentially_hazardous_asteroid": false,
    "close_approach_data": [
        {
            "close_approach_date": "2017-06-10",
            "close_approach_date_full": "2017-Jun-10 22:46",
            "epoch_date_close_approach": 1497134760000,
            "relative_velocity": {
                "kilometers_per_second": "14.6720281838",
                "kilometers_per_hour": "52819.3014617567",
                "miles_per_hour": "32819.8598443899"
            },
            "miss_distance": {
                "astronomical": "0.0303625858",
                "lunar": "11.8110458762",
                "kilometers": "4542178.163372246",
                "miles": "2822378.6352831548"
            },
            "orbiting_body": "Earth"
        },
        {
            "close_approach_date": "2111-12-27",
            "close_approach_date_full": "2111-Dec-27 08:53",
            "epoch_date_close_approach": 4480649580000,
            "relative_velocity": {
                "kilometers_per_second": "6.7729645724",
                "kilometers_per_hour": "24382.6724605312",
                "miles_per_hour": "15150.444451934"
            },
            "miss_distance": {
                "astronomical": "0.113357401",
                "lunar": "44.096028989",
                "kilometers": "16958025.73833587",
                "miles": "10537228.576020206"
            },
            "orbiting_body": "Venus"
        }
    ],
    "orbital_data": {
        "orbit_id": "1",
        "orbit_determination_date": "2017-06-23 09:42:04",
        "first_observation_date": "2017-06-20",
        "last_observation_date": "2017-06-23",
        "data_arc_in_days": 3,
        "observations_used": 15,
        "orbit_uncertainty": "9",
        "minimum_orbit_intersection": ".000519907",
        "jupiter_tisserand_invariant": "3.674",
        "epoch_osculation": "2457925.5",
        "eccentricity": ".5791449290757305",
        "semi_major_axis": "1.94372255849711",
        "inclination": ".06545835396527187",
        "ascending_node_longitude": "166.732664045245",
        "orbital_period": "989.8054469526624",
        "perihelion_distance": ".8180254952134038",
        "perihelion_argument": "28.62083810250603",
        "aphelion_distance": "3.069419621780816",
        "perihelion_time": "2457871.405489361443",
        "mean_anomaly": "19.67459755837439",
        "mean_motion": ".3637078388569598",
        "equinox": "J2000",
        "orbit_class": {
            "orbit_class_type": "APO",
            "orbit_class_description": "Near-Earth asteroid orbits which cross the Earth’s orbit similar to that of 1862 Apollo",
            "orbit_class_range": "a (semi-major axis) > 1.0 AU; q (perihelion) < 1.017 AU"
        }
    },
    "is_sentry_object": false
}